STARLINK-36569          
1 67553U 26014X   26041.24302517  .00192380  00000+0  98017-3 0  9996
2 67553  97.2746 284.8256 0001458  96.6964 263.4470 15.80881687  4244
STARLINK-36395          
1 67554U 26014Y   26041.25335741  .00203564  00000+0  13300-2 0  9991
2 67554  97.2849 284.8157 0001576  76.4553 283.6888 15.75248747  4245
STARLINK-36559          
1 67555U 26014Z   26041.25476907  .00147304  00000+0  96975-3 0  9991
2 67555  97.2847 284.8137 0001529  85.8666 274.2774 15.75232140  4249
MR-1                    
1 67556U 26015A   26041.19548132  .00000012  00000+0 -31319-6 0  9995
2 67556  88.9977 281.4573 0005124  87.7157 272.4582 13.52685984  2548
MR-2                    
1 67557U 26015B   26041.19582221  .00000019  00000+0  10757-4 0  9990
2 67557  88.9976 281.4574 0005177  86.8477 273.3267 13.52660968  2547
ELECTRON R/B            
1 67558U 26015C   26041.24282482  .02085739 -94247-6  14858-2 0  9995
2 67558  88.9950 280.9111 0464526 201.0427 157.1155 15.26646119  2825
ELECTRON KICK STAGE R/B 
1 67559U 26015D   26041.18070435  .00058617  10589-6  99196-3 0  9990
2 67559  89.0513 281.1537 0530729 269.8513  84.1911 14.67647163  2750
STARLINK-36426          
1 67560U 26014AA  26041.24192258  .00205235  00000+0  10438-2 0  9997
2 67560  97.2853 284.8317 0001379  93.4406 266.7020 15.80886273  4240
STARLINK-36621          
1 67561U 26016A   26041.15718725 -.00624599  00000+0 -36185-2 0  9990
2 67561  97.2842 100.2015 0001032  36.8166 323.3173 15.80086832  2469
STARLINK-36398          
1 67562U 26016B   26041.25002315 -.00121011  00000+0 -82159-3 0  9997
2 67562  97.2834 100.2827 0001189  69.2371  63.3968 15.75200859  3615
STARLINK-36403          
1 67563U 26016C   26041.21815546  .00212883  00000+0  10813-2 0  9995
2 67563  97.2843 100.2718 0001510  60.8487 299.2933 15.80894523  2476
STARLINK-36593          
1 67564U 26016D   26041.21693143  .00174450  00000+0  89069-3 0  9990
2 67564  97.2844 100.2731 0001302  64.2975 295.8428 15.80882454  2473
