CCSDS_OMM_VERS = 2.0
CREATION_DATE  = 
ORIGINATOR     = 

OBJECT_NAME    = STARLINK-36569
OBJECT_ID      = 2026-014X
CENTER_NAME    = EARTH
REF_FRAME      = TEME
TIME_SYSTEM    = UTC
MEAN_ELEMENT_THEORY = SGP/SGP4

EPOCH          = 2026-02-10T05:49:57.374688
MEAN_MOTION    = 15.80881687
ECCENTRICITY   = .00014585
INCLINATION    = 97.2746
RA_OF_ASC_NODE = 284.8256
ARG_OF_PERICENTER = 96.6964
MEAN_ANOMALY   = 263.4470

EPHEMERIS_TYPE = 0
CLASSIFICATION_TYPE = U
NORAD_CAT_ID   = 67553
ELEMENT_SET_NO = 999
REV_AT_EPOCH   = 424
BSTAR          = .98016807E-3
MEAN_MOTION_DOT = .19238E-2
MEAN_MOTION_DDOT = 0

CCSDS_OMM_VERS = 2.0
CREATION_DATE  = 
ORIGINATOR     = 

OBJECT_NAME    = STARLINK-36395
OBJECT_ID      = 2026-014Y
CENTER_NAME    = EARTH
REF_FRAME      = TEME
TIME_SYSTEM    = UTC
MEAN_ELEMENT_THEORY = SGP/SGP4

EPOCH          = 2026-02-10T06:04:50.080224
MEAN_MOTION    = 15.75248747
ECCENTRICITY   = .00015765
INCLINATION    = 97.2849
RA_OF_ASC_NODE = 284.8157
ARG_OF_PERICENTER = 76.4553
MEAN_ANOMALY   = 283.6888

EPHEMERIS_TYPE = 0
CLASSIFICATION_TYPE = U
NORAD_CAT_ID   = 67554
ELEMENT_SET_NO = 999
REV_AT_EPOCH   = 424
BSTAR          = .13299846E-2
MEAN_MOTION_DOT = .203564E-2
MEAN_MOTION_DDOT = 0

CCSDS_OMM_VERS = 2.0
CREATION_DATE  = 
ORIGINATOR     = 

OBJECT_NAME    = STARLINK-36559
OBJECT_ID      = 2026-014Z
CENTER_NAME    = EARTH
REF_FRAME      = TEME
TIME_SYSTEM    = UTC
MEAN_ELEMENT_THEORY = SGP/SGP4

EPOCH          = 2026-02-10T06:06:52.047648
MEAN_MOTION    = 15.75232140
ECCENTRICITY   = .00015297
INCLINATION    = 97.2847
RA_OF_ASC_NODE = 284.8137
ARG_OF_PERICENTER = 85.8666
MEAN_ANOMALY   = 274.2774

EPHEMERIS_TYPE = 0
CLASSIFICATION_TYPE = U
NORAD_CAT_ID   = 67555
ELEMENT_SET_NO = 999
REV_AT_EPOCH   = 424
BSTAR          = .9697469E-3
MEAN_MOTION_DOT = .147304E-2
MEAN_MOTION_DDOT = 0

CCSDS_OMM_VERS = 2.0
CREATION_DATE  = 
ORIGINATOR     = 

OBJECT_NAME    = MR-1
OBJECT_ID      = 2026-015A
CENTER_NAME    = EARTH
REF_FRAME      = TEME
TIME_SYSTEM    = UTC
MEAN_ELEMENT_THEORY = SGP/SGP4

EPOCH          = 2026-02-10T04:41:29.586048
MEAN_MOTION    = 13.52685984
ECCENTRICITY   = .00051246
INCLINATION    = 88.9977
RA_OF_ASC_NODE = 281.4573
ARG_OF_PERICENTER = 87.7157
MEAN_ANOMALY   = 272.4582

EPHEMERIS_TYPE = 0
CLASSIFICATION_TYPE = U
NORAD_CAT_ID   = 67556
ELEMENT_SET_NO = 999
REV_AT_EPOCH   = 254
BSTAR          = -.313188E-6
MEAN_MOTION_DOT = .12E-6
MEAN_MOTION_DDOT = 0

CCSDS_OMM_VERS = 2.0
CREATION_DATE  = 
ORIGINATOR     = 

OBJECT_NAME    = MR-2
OBJECT_ID      = 2026-015B
CENTER_NAME    = EARTH
REF_FRAME      = TEME
TIME_SYSTEM    = UTC
MEAN_ELEMENT_THEORY = SGP/SGP4

EPOCH          = 2026-02-10T04:41:59.038944
MEAN_MOTION    = 13.52660968
ECCENTRICITY   = .00051773
INCLINATION    = 88.9976
RA_OF_ASC_NODE = 281.4574
ARG_OF_PERICENTER = 86.8477
MEAN_ANOMALY   = 273.3267

EPHEMERIS_TYPE = 0
CLASSIFICATION_TYPE = U
NORAD_CAT_ID   = 67557
ELEMENT_SET_NO = 999
REV_AT_EPOCH   = 254
BSTAR          = .10756891E-4
MEAN_MOTION_DOT = .19E-6
MEAN_MOTION_DDOT = 0

CCSDS_OMM_VERS = 2.0
CREATION_DATE  = 
ORIGINATOR     = 

OBJECT_NAME    = ELECTRON R/B
OBJECT_ID      = 2026-015C
CENTER_NAME    = EARTH
REF_FRAME      = TEME
TIME_SYSTEM    = UTC
MEAN_ELEMENT_THEORY = SGP/SGP4

EPOCH          = 2026-02-10T05:49:40.064448
MEAN_MOTION    = 15.26646119
ECCENTRICITY   = .04645269
INCLINATION    = 88.9950
RA_OF_ASC_NODE = 280.9111
ARG_OF_PERICENTER = 201.0427
MEAN_ANOMALY   = 157.1155

EPHEMERIS_TYPE = 0
CLASSIFICATION_TYPE = U
NORAD_CAT_ID   = 67558
ELEMENT_SET_NO = 999
REV_AT_EPOCH   = 282
BSTAR          = .14857944E-2
MEAN_MOTION_DOT = .2085739E-1
MEAN_MOTION_DDOT = -.942475E-6

CCSDS_OMM_VERS = 2.0
CREATION_DATE  = 
ORIGINATOR     = 

OBJECT_NAME    = ELECTRON KICK STAGE R/B
OBJECT_ID      = 2026-015D
CENTER_NAME    = EARTH
REF_FRAME      = TEME
TIME_SYSTEM    = UTC
MEAN_ELEMENT_THEORY = SGP/SGP4

EPOCH          = 2026-02-10T04:20:12.855840
MEAN_MOTION    = 14.67647163
ECCENTRICITY   = .05307292
INCLINATION    = 89.0513
RA_OF_ASC_NODE = 281.1537
ARG_OF_PERICENTER = 269.8513
MEAN_ANOMALY   = 84.1911

EPHEMERIS_TYPE = 0
CLASSIFICATION_TYPE = U
NORAD_CAT_ID   = 67559
ELEMENT_SET_NO = 999
REV_AT_EPOCH   = 275
BSTAR          = .99196287E-3
MEAN_MOTION_DOT = .58617E-3
MEAN_MOTION_DDOT = .105892E-6

CCSDS_OMM_VERS = 2.0
CREATION_DATE  = 
ORIGINATOR     = 

OBJECT_NAME    = STARLINK-36426
OBJECT_ID      = 2026-014AA
CENTER_NAME    = EARTH
REF_FRAME      = TEME
TIME_SYSTEM    = UTC
MEAN_ELEMENT_THEORY = SGP/SGP4

EPOCH          = 2026-02-10T05:48:22.110912
MEAN_MOTION    = 15.80886273
ECCENTRICITY   = .00013793
INCLINATION    = 97.2853
RA_OF_ASC_NODE = 284.8317
ARG_OF_PERICENTER = 93.4406
MEAN_ANOMALY   = 266.7020

EPHEMERIS_TYPE = 0
CLASSIFICATION_TYPE = U
NORAD_CAT_ID   = 67560
ELEMENT_SET_NO = 999
REV_AT_EPOCH   = 424
BSTAR          = .1043846E-2
MEAN_MOTION_DOT = .205235E-2
MEAN_MOTION_DDOT = 0

CCSDS_OMM_VERS = 2.0
CREATION_DATE  = 
ORIGINATOR     = 

OBJECT_NAME    = STARLINK-36621
OBJECT_ID      = 2026-016A
CENTER_NAME    = EARTH
REF_FRAME      = TEME
TIME_SYSTEM    = UTC
MEAN_ELEMENT_THEORY = SGP/SGP4

EPOCH          = 2026-02-10T03:46:20.978400
MEAN_MOTION    = 15.80086832
ECCENTRICITY   = .0001032
INCLINATION    = 97.2842
RA_OF_ASC_NODE = 100.2015
ARG_OF_PERICENTER = 36.8166
MEAN_ANOMALY   = 323.3173

EPHEMERIS_TYPE = 0
CLASSIFICATION_TYPE = U
NORAD_CAT_ID   = 67561
ELEMENT_SET_NO = 999
REV_AT_EPOCH   = 246
BSTAR          = -.36184923E-2
MEAN_MOTION_DOT = -.624599E-2
MEAN_MOTION_DDOT = 0

CCSDS_OMM_VERS = 2.0
CREATION_DATE  = 
ORIGINATOR     = 

OBJECT_NAME    = STARLINK-36398
OBJECT_ID      = 2026-016B
CENTER_NAME    = EARTH
REF_FRAME      = TEME
TIME_SYSTEM    = UTC
MEAN_ELEMENT_THEORY = SGP/SGP4

EPOCH          = 2026-02-10T06:00:02.000160
MEAN_MOTION    = 15.75200859
ECCENTRICITY   = .00011891
INCLINATION    = 97.2834
RA_OF_ASC_NODE = 100.2827
ARG_OF_PERICENTER = 69.2371
MEAN_ANOMALY   = 63.3968

EPHEMERIS_TYPE = 0
CLASSIFICATION_TYPE = U
NORAD_CAT_ID   = 67562
ELEMENT_SET_NO = 999
REV_AT_EPOCH   = 361
BSTAR          = -.82158928E-3
MEAN_MOTION_DOT = -.121011E-2
MEAN_MOTION_DDOT = 0

CCSDS_OMM_VERS = 2.0
CREATION_DATE  = 
ORIGINATOR     = 

OBJECT_NAME    = STARLINK-36403
OBJECT_ID      = 2026-016C
CENTER_NAME    = EARTH
REF_FRAME      = TEME
TIME_SYSTEM    = UTC
MEAN_ELEMENT_THEORY = SGP/SGP4

EPOCH          = 2026-02-10T05:14:08.631744
MEAN_MOTION    = 15.80894523
ECCENTRICITY   = .00015103
INCLINATION    = 97.2843
RA_OF_ASC_NODE = 100.2718
ARG_OF_PERICENTER = 60.8487
MEAN_ANOMALY   = 299.2933

EPHEMERIS_TYPE = 0
CLASSIFICATION_TYPE = U
NORAD_CAT_ID   = 67563
ELEMENT_SET_NO = 999
REV_AT_EPOCH   = 247
BSTAR          = .10813488E-2
MEAN_MOTION_DOT = .212883E-2
MEAN_MOTION_DDOT = 0

CCSDS_OMM_VERS = 2.0
CREATION_DATE  = 
ORIGINATOR     = 

OBJECT_NAME    = STARLINK-36593
OBJECT_ID      = 2026-016D
CENTER_NAME    = EARTH
REF_FRAME      = TEME
TIME_SYSTEM    = UTC
MEAN_ELEMENT_THEORY = SGP/SGP4

EPOCH          = 2026-02-10T05:12:22.875552
MEAN_MOTION    = 15.80882454
ECCENTRICITY   = .00013023
INCLINATION    = 97.2844
RA_OF_ASC_NODE = 100.2731
ARG_OF_PERICENTER = 64.2975
MEAN_ANOMALY   = 295.8428

EPHEMERIS_TYPE = 0
CLASSIFICATION_TYPE = U
NORAD_CAT_ID   = 67564
ELEMENT_SET_NO = 999
REV_AT_EPOCH   = 247
BSTAR          = .89069096E-3
MEAN_MOTION_DOT = .17445E-2
MEAN_MOTION_DDOT = 0

